OBJECT_NAME,OBJECT_ID,EPOCH,MEAN_MOTION,ECCENTRICITY,INCLINATION,RA_OF_ASC_NODE,ARG_OF_PERICENTER,MEAN_ANOMALY,EPHEMERIS_TYPE,CLASSIFICATION_TYPE,NORAD_CAT_ID,ELEMENT_SET_NO,REV_AT_EPOCH,BSTAR,MEAN_MOTION_DOT,MEAN_MOTION_DDOT
STARLINK-30230,2023-113J,2026-06-01T15:11:28.996800,15.27578058,.0001718,43.0024,261.9498,262.1633,97.9023,0,U,57503,999,15640,.7455572E-4,.179E-4,0
STARLINK-30213,2023-113K,2026-06-01T14:23:35.258496,15.27562845,.00020977,43.0001,262.5632,260.5342,99.5272,0,U,57504,999,15650,-.55069819E-4,-.1777E-4,0
STARLINK-30227,2023-113L,2026-06-01T13:45:37.296576,15.24543582,.00089239,43.0011,252.8014,350.2968,9.7709,0,U,57505,999,15661,.16663371E-2,.41859E-3,0
STARLINK-30212,2023-113M,2026-06-02T14:01:28.807680,15.27577796,.00027613,43.0044,257.0491,254.9025,105.1521,0,U,57506,999,15649,.72544583E-4,.1734E-4,0
STARLINK-30219,2023-113N,2026-06-02T13:58:02.070624,15.30761272,.00024265,43.0007,256.1788,322.3607,37.7075,0,U,57507,999,15666,.11188786E-2,.33845E-3,0
STARLINK-30074,2023-113P,2026-06-01T15:31:49.289664,15.27573941,.00034188,43.0044,262.0622,248.3711,111.6776,0,U,57508,999,15630,-.17402355E-4,-.742E-5,0
STARLINK-30082,2023-113Q,2026-06-02T14:34:35.219712,15.27576814,.00027378,43.0071,256.3861,284.8796,75.1753,0,U,57509,999,15666,.61724945E-4,.1436E-4,0
STARLINK-30153,2023-113R,2026-06-01T17:44:39.198912,15.27560364,.00021328,43.0049,261.0599,255.5685,104.4930,0,U,57510,999,15642,.10232615E-3,.2553E-4,0
STARLINK-30147,2023-113S,2026-06-01T08:34:30.092736,15.27578937,.00023873,43.0078,263.3477,284.7497,75.3090,0,U,57511,999,15647,.6874935E-4,.163E-4,0
STARLINK-30157,2023-113T,2026-06-01T07:14:06.379008,15.27574304,.00025812,43.0018,238.0802,276.2614,83.7944,0,U,57512,999,15676,.97955946E-4,.2434E-4,0
STARLINK-30168,2023-113U,2026-06-02T14:17:55.444704,15.27577918,.00004062,43.0006,256.2663,193.5783,166.5058,0,U,57513,999,15650,.87434791E-4,.2145E-4,0
STARLINK-30231,2023-113V,2026-06-01T15:07:47.972640,15.27564833,.00012844,43.0024,261.9393,236.8753,123.1975,0,U,57514,999,15651,.11031962E-4,.41E-6,0
STARLINK-30081,2023-113W,2026-06-01T17:48:21.427488,15.27574818,.00008737,43.0011,261.0767,265.7042,94.3710,0,U,57515,999,15653,-.72645044E-4,-.226E-4,0
STARLINK-30149,2023-113X,2026-06-01T08:43:45.174720,15.27566074,.00014892,43.0027,263.3874,217.8914,142.1833,0,U,57516,999,15637,.2161046E-3,.5687E-4,0
COSMOS 2569 [GLONASS-K2],2023-114A,2026-06-04T02:44:27.261888,2.13103782,.00111549,65.2951,73.0614,296.7433,63.1616,0,U,57517,999,2198,0,-.12E-6,0
HJ-2F,2023-116A,2026-06-04T23:02:25.843776,15.22139169,.00105726,97.3845,161.3934,87.2250,273.0197,0,U,57519,999,15689,.41575747E-3,.9481E-4,0
STARLINK-30259,2023-115A,2026-06-01T06:31:39.402912,15.27567541,.00021388,43.0055,249.6130,280.0378,80.0232,0,U,57521,999,15635,.14359886E-3,.369E-4,0
STARLINK-30256,2023-115B,2026-06-01T07:03:06.531840,15.27578094,.00021919,43.0042,249.7719,273.9667,86.0935,0,U,57522,999,15513,.55327292E-4,.126E-4,0
STARLINK-30261,2023-115C,2026-06-01T06:52:00.425856,15.27579608,.00023817,43.0024,249.7092,252.2516,107.8076,0,U,57523,999,15513,.70041515E-4,.1665E-4,0
STARLINK-30260,2023-115D,2026-06-04T16:02:15.207648,15.27590267,.00020267,43.0040,230.4009,288.0612,72.0019,0,U,57524,999,15565,.18731613E-3,.4897E-4,0
STARLINK-30253,2023-115E,2026-06-01T06:42:46.080000,15.27579919,.00010719,42.9988,249.6721,287.9284,72.1451,0,U,57525,999,15513,.26159999E-3,.6943E-4,0
STARLINK-30257,2023-115F,2026-06-01T06:37:13.342368,15.27570992,.00010014,43.0000,249.6654,272.2690,87.8047,0,U,57526,999,15513,.45426779E-4,.988E-5,0
STARLINK-30250,2023-115G,2026-06-02T14:11:25.861056,15.27581986,.00012992,43.0006,242.3065,261.5160,98.5544,0,U,57527,999,15623,.14296555E-3,.3674E-4,0
STARLINK-30269,2023-115H,2026-06-04T15:16:11.417664,15.27583741,.00012895,43.0000,231.0176,263.0904,96.9801,0,U,57528,999,15564,.1066696E-3,.2675E-4,0
STARLINK-30266,2023-115J,2026-06-01T17:04:48.700128,15.27617205,.00026133,43.0047,246.8932,251.9937,108.0630,0,U,57529,999,15520,-.71813544E-3,-.19995E-3,0
STARLINK-30270,2023-115K,2026-06-01T13:45:26.614944,15.27568821,.00003796,42.9995,247.5871,215.5450,144.5376,0,U,57530,999,15518,.62619036E-4,.1461E-4,0
STARLINK-30268,2023-115L,2026-06-03T03:05:00.367008,15.27598718,.00022549,43.0046,239.4748,274.2979,85.7615,0,U,57531,999,15541,.10276596E-3,.2568E-4,0
STARLINK-30251,2023-115M,2026-06-01T07:34:21.932832,15.27570128,.00012475,43.0024,249.0882,278.7526,81.3184,0,U,57532,999,15514,.31709267E-4,.61E-5,0
STARLINK-30254,2023-115N,2026-05-31T22:48:22.261824,15.27584050,.00007932,43.0030,352.9492,219.9360,140.1434,0,U,57533,999,15809,.15041527E-3,.388E-4,0
STARLINK-30264,2023-115P,2026-06-01T22:51:42.859296,15.27573381,.00010833,43.0029,93.0223,249.9350,110.1385,0,U,57534,999,15824,.26707066E-4,.473E-5,0
