STARLINK-30230          
1 57503U 23113J   26152.63297450  .00001790  00000+0  74556-4 0  9999
2 57503  43.0024 261.9498 0001718 262.1633  97.9023 15.27578058156408
STARLINK-30213          
1 57504U 23113K   26152.59971364 -.00001777  00000+0 -55070-4 0  9995
2 57504  43.0001 262.5632 0002097 260.5342  99.5272 15.27562845156503
STARLINK-30227          
1 57505U 23113L   26152.57334834  .00041859  00000+0  16663-2 0  9995
2 57505  43.0011 252.8014 0008923 350.2968   9.7709 15.24543582156610
STARLINK-30212          
1 57506U 23113M   26153.58436120  .00001734  00000+0  72545-4 0  9990
2 57506  43.0044 257.0491 0002761 254.9025 105.1521 15.27577796156497
STARLINK-30219          
1 57507U 23113N   26153.58196841  .00033845  00000+0  11189-2 0  9997
2 57507  43.0007 256.1788 0002426 322.3607  37.7075 15.30761272156661
STARLINK-30074          
1 57508U 23113P   26152.64709826 -.00000742  00000+0 -17402-4 0  9995
2 57508  43.0044 262.0622 0003418 248.3711 111.6776 15.27573941156302
STARLINK-30082          
1 57509U 23113Q   26153.60735208  .00001436  00000+0  61725-4 0  9992
2 57509  43.0071 256.3861 0002737 284.8796  75.1753 15.27576814156665
STARLINK-30153          
1 57510U 23113R   26152.73934258  .00002553  00000+0  10233-3 0  9991
2 57510  43.0049 261.0599 0002132 255.5685 104.4930 15.27560364156424
STARLINK-30147          
1 57511U 23113S   26152.35729274  .00001630  00000+0  68749-4 0  9991
2 57511  43.0078 263.3477 0002387 284.7497  75.3090 15.27578937156477
STARLINK-30157          
1 57512U 23113T   26152.30146272  .00002434  00000+0  97956-4 0  9993
2 57512  43.0018 238.0802 0002581 276.2614  83.7944 15.27574304156763
STARLINK-30168          
1 57513U 23113U   26153.59578061  .00002145  00000+0  87435-4 0  9991
2 57513  43.0006 256.2663 0000406 193.5783 166.5058 15.27577918156502
STARLINK-30231          
1 57514U 23113V   26152.63041635  .00000041  00000+0  11032-4 0  9991
2 57514  43.0024 261.9393 0001284 236.8753 123.1975 15.27564833156519
STARLINK-30081          
1 57515U 23113W   26152.74191467 -.00002260  00000+0 -72645-4 0  9997
2 57515  43.0011 261.0767 0000873 265.7042  94.3710 15.27574818156539
STARLINK-30149          
1 57516U 23113X   26152.36371730  .00005687  00000+0  21610-3 0  9998
2 57516  43.0027 263.3874 0001489 217.8914 142.1833 15.27566074156376
COSMOS 2569 [GLONASS-K2]
1 57517U 23114A   26155.11420442 -.00000012  00000+0  00000+0 0  9995
2 57517  65.2951  73.0614 0011154 296.7433  63.1616  2.13103782 21982
HJ-2F                   
1 57519U 23116A   26155.96002134  .00009481  00000+0  41576-3 0  9991
2 57519  97.3845 161.3934 0010572  87.2250 273.0197 15.22139169156898
STARLINK-30259          
1 57521U 23115A   26152.27198383  .00003690  00000+0  14360-3 0  9993
2 57521  43.0055 249.6130 0002138 280.0378  80.0232 15.27567541156354
STARLINK-30256          
1 57522U 23115B   26152.29382560  .00001260  00000+0  55327-4 0  9998
2 57522  43.0042 249.7719 0002191 273.9667  86.0935 15.27578094155132
STARLINK-30261          
1 57523U 23115C   26152.28611604  .00001665  00000+0  70042-4 0  9992
2 57523  43.0024 249.7092 0002381 252.2516 107.8076 15.27579608155131
STARLINK-30260          
1 57524U 23115D   26155.66823157  .00004897  00000+0  18732-3 0  9993
2 57524  43.0040 230.4009 0002026 288.0612  72.0019 15.27590267155656
STARLINK-30253          
1 57525U 23115E   26152.27970000  .00006943  00000+0  26160-3 0  9996
2 57525  42.9988 249.6721 0001071 287.9284  72.1451 15.27579919155136
STARLINK-30257          
1 57526U 23115F   26152.27584887  .00000988  00000+0  45427-4 0  9992
2 57526  43.0000 249.6654 0001001 272.2690  87.8047 15.27570992155136
STARLINK-30250          
1 57527U 23115G   26153.59127154  .00003674  00000+0  14297-3 0  9994
2 57527  43.0006 242.3065 0001299 261.5160  98.5544 15.27581986156239
STARLINK-30269          
1 57528U 23115H   26155.63624326  .00002675  00000+0  10667-3 0  9992
2 57528  43.0000 231.0176 0001289 263.0904  96.9801 15.27583741155647
STARLINK-30266          
1 57529U 23115J   26152.71167477 -.00019995  00000+0 -71814-3 0  9994
2 57529  43.0047 246.8932 0002613 251.9937 108.0630 15.27617205155207
STARLINK-30270          
1 57530U 23115K   26152.57322471  .00001461  00000+0  62619-4 0  9998
2 57530  42.9995 247.5871 0000379 215.5450 144.5376 15.27568821155180
STARLINK-30268          
1 57531U 23115L   26154.12847647  .00002568  00000+0  10277-3 0  9990
2 57531  43.0046 239.4748 0002254 274.2979  85.7615 15.27598718155411
STARLINK-30251          
1 57532U 23115M   26152.31553163  .00000610  00000+0  31709-4 0  9997
2 57532  43.0024 249.0882 0001247 278.7526  81.3184 15.27570128155140
STARLINK-30254          
1 57533U 23115N   26151.95025766  .00003880  00000+0  15042-3 0  9993
2 57533  43.0030 352.9492 0000793 219.9360 140.1434 15.27584050158095
STARLINK-30264          
1 57534U 23115P   26152.95257939  .00000473  00000+0  26707-4 0  9990
2 57534  43.0029  93.0223 0001083 249.9350 110.1385 15.27573381158248
